[{"OBJECT_NAME":"STARLINK-3161","OBJECT_ID":"2021-104Q","EPOCH":"2026-03-09T17:27:48.361248","MEAN_MOTION":15.08835383,"ECCENTRICITY":0.00012192,"INCLINATION":53.2168,"RA_OF_ASC_NODE":229.2684,"ARG_OF_PERICENTER":97.5289,"MEAN_ANOMALY":262.5841,"EPHEMERIS_TYPE":0,"CLASSIFICATION_TYPE":"U","NORAD_CAT_ID":49422,"ELEMENT_SET_NO":999,"REV_AT_EPOCH":23862,"BSTAR":1.2726605e-5,"MEAN_MOTION_DOT":-8.5e-7,"MEAN_MOTION_DDOT":0},{"OBJECT_NAME":"THOR AGENA B DEB","OBJECT_ID":"1965-098G","EPOCH":"2026-03-09T23:22:06.853152","MEAN_MOTION":13.57256453,"ECCENTRICITY":0.07679635,"INCLINATION":79.6109,"RA_OF_ASC_NODE":51.0692,"ARG_OF_PERICENTER":143.4347,"MEAN_ANOMALY":222.1845,"EPHEMERIS_TYPE":0,"CLASSIFICATION_TYPE":"U","NORAD_CAT_ID":1951,"ELEMENT_SET_NO":999,"REV_AT_EPOCH":79416,"BSTAR":0.00077607754,"MEAN_MOTION_DOT":4.232e-5,"MEAN_MOTION_DDOT":0}]
